start=new Date('2022-02-13T00:00:00.000Z').valueOf();
sats=[{"OBJECT_ID":"2020-025AQ","BSTAR":"-0.00022211000000","MEAN_MOTION_DDOT":"0.0000000000000","DECAY_DATE":null,"NORAD_CAT_ID":"45569","GP_ID":"195830106","RCS_SIZE":"LARGE","MEAN_MOTION_DOT":"-0.00003589","MEAN_ELEMENT_THEORY":"SGP4","COUNTRY_CODE":"US","OBJECT_TYPE":"PAYLOAD","RA_OF_ASC_NODE":"277.0819","APOAPSIS":"548.617","ARG_OF_PERICENTER":"53.0340","OBJECT_NAME":"STARLINK-1366","FILE":"3298865","CLASSIFICATION_TYPE":"U","EPOCH":"2022-02-12T18:58:09.116256","TLE_LINE1":"1 45569U 20025AQ  22043.79038329 -.00003589  00000-0 -22211-3 0  9998","EPHEMERIS_TYPE":"0","PERIAPSIS":"545.792","ECCENTRICITY":"0.00020400","LAUNCH_DATE":"2020-04-22","REF_FRAME":"TEME","TLE_LINE2":"2 45569  53.0531 277.0819 0002040  53.0340 307.0835 15.06402912100808","MEAN_ANOMALY":"307.0835","SEMIMAJOR_AXIS":"6925.340","CENTER_NAME":"EARTH","TIME_SYSTEM":"UTC","PERIOD":"95.592","ELEMENT_SET_NO":"999","MEAN_MOTION":"15.06402912","REV_AT_EPOCH":"10080","INCLINATION":"53.0531","SITE":"AFETR"},{"SITE":"AFETR","INCLINATION":"53.0510","REV_AT_EPOCH":"10080","ELEMENT_SET_NO":"999","PERIOD":"95.591","MEAN_MOTION":"15.06414622","TIME_SYSTEM":"UTC","SEMIMAJOR_AXIS":"6925.304","TLE_LINE2":"2 45570  53.0510 277.1066 0001712  97.3032 262.8151 15.06414622100806","MEAN_ANOMALY":"262.8151","CENTER_NAME":"EARTH","REF_FRAME":"TEME","LAUNCH_DATE":"2020-04-22","ECCENTRICITY":"0.00017120","EPOCH":"2022-02-12T18:47:32.583264","PERIAPSIS":"545.983","EPHEMERIS_TYPE":"0","TLE_LINE1":"1 45570U 20025AR  22043.78301601 -.00003516  00000-0 -21716-3 0  9994","FILE":"3298863","CLASSIFICATION_TYPE":"U","APOAPSIS":"548.354","ARG_OF_PERICENTER":"97.3032","OBJECT_NAME":"STARLINK-1376","RA_OF_ASC_NODE":"277.1066","MEAN_ELEMENT_THEORY":"SGP4","OBJECT_TYPE":"PAYLOAD","COUNTRY_CODE":"US","MEAN_MOTION_DOT":"-0.00003516","GP_ID":"195829576","RCS_SIZE":"LARGE","DECAY_DATE":null,"NORAD_CAT_ID":"45570","MEAN_MOTION_DDOT":"0.0000000000000","OBJECT_ID":"2020-025AR","BSTAR":"-0.00021716000000"},{"APOAPSIS":"548.283","ARG_OF_PERICENTER":"70.4446","OBJECT_NAME":"STARLINK-1261","FILE":"3298493","CLASSIFICATION_TYPE":"U","EPOCH":"2022-02-12T08:01:20.982432","TLE_LINE1":"1 45571U 20025AS  22043.33427063  .00001222  00000-0  10088-3 0  9997","PERIAPSIS":"546.054","EPHEMERIS_TYPE":"0","ECCENTRICITY":"0.00016090","REF_FRAME":"TEME","LAUNCH_DATE":"2020-04-22","TLE_LINE2":"2 45571  53.0541 269.1411 0001609  70.4446 289.6716 15.06414763101498","SEMIMAJOR_AXIS":"6925.303","CENTER_NAME":"EARTH","MEAN_ANOMALY":"289.6716","TIME_SYSTEM":"UTC","PERIOD":"95.591","ELEMENT_SET_NO":"999","MEAN_MOTION":"15.06414763","REV_AT_EPOCH":"10149","SITE":"AFETR","INCLINATION":"53.0541","BSTAR":"0.00010088000000","OBJECT_ID":"2020-025AS","MEAN_MOTION_DDOT":"0.0000000000000","DECAY_DATE":null,"NORAD_CAT_ID":"45571","RCS_SIZE":"LARGE","GP_ID":"195819515","MEAN_MOTION_DOT":"0.00001222","MEAN_ELEMENT_THEORY":"SGP4","COUNTRY_CODE":"US","OBJECT_TYPE":"PAYLOAD","RA_OF_ASC_NODE":"269.1411"},{"MEAN_MOTION_DOT":"-0.00000555","GP_ID":"195826099","RCS_SIZE":"LARGE","NORAD_CAT_ID":"45572","DECAY_DATE":null,"RA_OF_ASC_NODE":"267.0896","OBJECT_TYPE":"PAYLOAD","COUNTRY_CODE":"US","MEAN_ELEMENT_THEORY":"SGP4","OBJECT_ID":"2020-025AT","BSTAR":"-0.00001834900000","MEAN_MOTION_DDOT":"0.0000000000000","TIME_SYSTEM":"UTC","CENTER_NAME":"EARTH","TLE_LINE2":"2 45572  53.0544 267.0896 0001312  81.3301 278.7837 15.06401483100945","SEMIMAJOR_AXIS":"6925.344","MEAN_ANOMALY":"278.7837","LAUNCH_DATE":"2020-04-22","REF_FRAME":"TEME","SITE":"AFETR","INCLINATION":"53.0544","REV_AT_EPOCH":"10094","MEAN_MOTION":"15.06401483","ELEMENT_SET_NO":"999","PERIOD":"95.592","CLASSIFICATION_TYPE":"U","FILE":"3298640","OBJECT_NAME":"STARLINK-1320","ARG_OF_PERICENTER":"81.3301","APOAPSIS":"548.118","ECCENTRICITY":"0.00013120","EPHEMERIS_TYPE":"0","PERIAPSIS":"546.300","TLE_LINE1":"1 45572U 20025AT  22043.79131986 -.00000555  00000-0 -18349-4 0  9993","EPOCH":"2022-02-12T18:59:30.035904"},{"OBJECT_NAME":"STARLINK-1321","ARG_OF_PERICENTER":"62.2408","APOAPSIS":"548.285","CLASSIFICATION_TYPE":"U","FILE":"3298640","TLE_LINE1":"1 45573U 20025AU  22043.76919095  .00003475  00000-0  25201-3 0  9992","EPHEMERIS_TYPE":"0","PERIAPSIS":"546.075","EPOCH":"2022-02-12T18:27:38.098080","ECCENTRICITY":"0.00015960","LAUNCH_DATE":"2020-04-22","REF_FRAME":"TEME","MEAN_ANOMALY":"297.8743","TLE_LINE2":"2 45573  53.0533 267.1790 0001596  62.2408 297.8743 15.06410967100943","SEMIMAJOR_AXIS":"6925.315","CENTER_NAME":"EARTH","TIME_SYSTEM":"UTC","MEAN_MOTION":"15.06410967","PERIOD":"95.591","ELEMENT_SET_NO":"999","REV_AT_EPOCH":"10094","INCLINATION":"53.0533","SITE":"AFETR","OBJECT_ID":"2020-025AU","BSTAR":"0.00025201000000","MEAN_MOTION_DDOT":"0.0000000000000","NORAD_CAT_ID":"45573","DECAY_DATE":null,"GP_ID":"195825869","RCS_SIZE":"LARGE","MEAN_MOTION_DOT":"0.00003475","COUNTRY_CODE":"US","OBJECT_TYPE":"PAYLOAD","MEAN_ELEMENT_THEORY":"SGP4","RA_OF_ASC_NODE":"267.1790"},{"RA_OF_ASC_NODE":"267.0693","OBJECT_TYPE":"PAYLOAD","COUNTRY_CODE":"US","MEAN_ELEMENT_THEORY":"SGP4","MEAN_MOTION_DOT":"-0.00000229","GP_ID":"195826120","RCS_SIZE":"LARGE","NORAD_CAT_ID":"45574","DECAY_DATE":null,"MEAN_MOTION_DDOT":"0.0000000000000","BSTAR":"0.00000350810000","OBJECT_ID":"2020-025AV","INCLINATION":"53.0545","SITE":"AFETR","REV_AT_EPOCH":"10095","MEAN_MOTION":"15.06405379","ELEMENT_SET_NO":"999","PERIOD":"95.592","TIME_SYSTEM":"UTC","TLE_LINE2":"2 45574  53.0545 267.0693 0001729  60.4854 299.6307 15.06405379100959","SEMIMAJOR_AXIS":"6925.332","CENTER_NAME":"EARTH","MEAN_ANOMALY":"299.6307","LAUNCH_DATE":"2020-04-22","REF_FRAME":"TEME","ECCENTRICITY":"0.00017290","EPHEMERIS_TYPE":"0","PERIAPSIS":"546.000","TLE_LINE1":"1 45574U 20025AV  22043.79499994 -.00000229  00000-0  35081-5 0  9991","EPOCH":"2022-02-12T19:04:47.994816","FILE":"3298637","CLASSIFICATION_TYPE":"U","OBJECT_NAME":"STARLINK-1324","ARG_OF_PERICENTER":"60.4854","APOAPSIS":"548.394"},{"TIME_SYSTEM":"UTC","REF_FRAME":"TEME","LAUNCH_DATE":"2020-04-22","CENTER_NAME":"EARTH","TLE_LINE2":"2 45575  53.0002 263.2814 0001839 114.9467 245.1714 15.09979919101541","SEMIMAJOR_AXIS":"6914.398","MEAN_ANOMALY":"245.1714","REV_AT_EPOCH":"10154","SITE":"AFETR","INCLINATION":"53.0002","PERIOD":"95.366","ELEMENT_SET_NO":"999","MEAN_MOTION":"15.09979919","CLASSIFICATION_TYPE":"U","FILE":"3298493","APOAPSIS":"537.535","OBJECT_NAME":"STARLINK-1326","ARG_OF_PERICENTER":"114.9467","ECCENTRICITY":"0.00018390","EPOCH":"2022-02-12T07:13:14.450880","TLE_LINE1":"1 45575U 20025AW  22043.30086170  .00016075  00000-0  99425-3 0  9992","PERIAPSIS":"534.992","EPHEMERIS_TYPE":"0","GP_ID":"195818015","RCS_SIZE":"LARGE","MEAN_MOTION_DOT":"0.00016075","DECAY_DATE":null,"NORAD_CAT_ID":"45575","RA_OF_ASC_NODE":"263.2814","MEAN_ELEMENT_THEORY":"SGP4","COUNTRY_CODE":"US","OBJECT_TYPE":"PAYLOAD","BSTAR":"0.00099425000000","OBJECT_ID":"2020-025AW","MEAN_MOTION_DDOT":"0.0000000000000"},{"CENTER_NAME":"EARTH","TLE_LINE2":"2 45576  53.0534 266.9376 0001821  67.8712 292.2470 15.06407667100954","SEMIMAJOR_AXIS":"6925.325","MEAN_ANOMALY":"292.2470","REF_FRAME":"TEME","LAUNCH_DATE":"2020-04-22","TIME_SYSTEM":"UTC","ELEMENT_SET_NO":"999","PERIOD":"95.592","MEAN_MOTION":"15.06407667","INCLINATION":"53.0534","SITE":"AFETR","REV_AT_EPOCH":"10095","APOAPSIS":"548.451","ARG_OF_PERICENTER":"67.8712","OBJECT_NAME":"STARLINK-1328","FILE":"3298641","CLASSIFICATION_TYPE":"U","EPOCH":"2022-02-12T19:41:57.964128","PERIAPSIS":"545.929","EPHEMERIS_TYPE":"0","TLE_LINE1":"1 45576U 20025AX  22043.82080977 -.00000256  00000-0  17237-5 0  9997","ECCENTRICITY":"0.00018210","DECAY_DATE":null,"NORAD_CAT_ID":"45576","MEAN_MOTION_DOT":"-0.00000256","GP_ID":"195826133","RCS_SIZE":"LARGE","MEAN_ELEMENT_THEORY":"SGP4","OBJECT_TYPE":"PAYLOAD","COUNTRY_CODE":"US","RA_OF_ASC_NODE":"266.9376","OBJECT_ID":"2020-025AX","BSTAR":"0.00000172370000","MEAN_MOTION_DDOT":"0.0000000000000"},{"MEAN_MOTION_DOT":"-0.00001328","GP_ID":"195826125","RCS_SIZE":"LARGE","DECAY_DATE":null,"NORAD_CAT_ID":"45577","RA_OF_ASC_NODE":"267.1372","MEAN_ELEMENT_THEORY":"SGP4","OBJECT_TYPE":"PAYLOAD","COUNTRY_CODE":"US","OBJECT_ID":"2020-025AY","BSTAR":"-0.00007023800000","MEAN_MOTION_DDOT":"0.0000000000000","TIME_SYSTEM":"UTC","TLE_LINE2":"2 45577  53.0519 267.1372 0001485  61.6373 298.4766 15.06402866100949","SEMIMAJOR_AXIS":"6925.340","MEAN_ANOMALY":"298.4766","CENTER_NAME":"EARTH","LAUNCH_DATE":"2020-04-22","REF_FRAME":"TEME","SITE":"AFETR","INCLINATION":"53.0519","REV_AT_EPOCH":"10094","ELEMENT_SET_NO":"999","PERIOD":"95.592","MEAN_MOTION":"15.06402866","FILE":"3298641","CLASSIFICATION_TYPE":"U","APOAPSIS":"548.233","ARG_OF_PERICENTER":"61.6373","OBJECT_NAME":"STARLINK-1330","ECCENTRICITY":"0.00014850","EPOCH":"2022-02-12T18:38:15.432000","EPHEMERIS_TYPE":"0","PERIAPSIS":"546.176","TLE_LINE1":"1 45577U 20025AY  22043.77656750 -.00001328  00000-0 -70238-4 0  9991"},{"APOAPSIS":"548.374","ARG_OF_PERICENTER":"70.0855","OBJECT_NAME":"STARLINK-1331","CLASSIFICATION_TYPE":"U","FILE":"3298677","EPOCH":"2022-02-12T19:31:19.856928","TLE_LINE1":"1 45578U 20025AZ  22043.81342427 -.00002129  00000-0 -12402-3 0  9998","EPHEMERIS_TYPE":"0","PERIAPSIS":"546.034","ECCENTRICITY":"0.00016900","REF_FRAME":"TEME","LAUNCH_DATE":"2020-04-22","SEMIMAJOR_AXIS":"6925.339","TLE_LINE2":"2 45578  53.0528 266.9863 0001690  70.0855 290.0316 15.06403083100951","MEAN_ANOMALY":"290.0316","CENTER_NAME":"EARTH","TIME_SYSTEM":"UTC","PERIOD":"95.592","ELEMENT_SET_NO":"999","MEAN_MOTION":"15.06403083","REV_AT_EPOCH":"10095","SITE":"AFETR","INCLINATION":"53.0528","BSTAR":"-0.00012402000000","OBJECT_ID":"2020-025AZ","MEAN_MOTION_DDOT":"0.0000000000000","DECAY_DATE":null,"NORAD_CAT_ID":"45578","GP_ID":"195826822","RCS_SIZE":"LARGE","MEAN_MOTION_DOT":"-0.00002129","MEAN_ELEMENT_THEORY":"SGP4","COUNTRY_CODE":"US","OBJECT_TYPE":"PAYLOAD","RA_OF_ASC_NODE":"266.9863"}];
